[
 {
   "name": "Agra",
   "state": "Madhya Pradesh",
   "city": "Indore",
   "district": "Indore",
   "zip_code": 453115,
   "about": "Pending"
 },
 {
   "name": "Ajnod",
   "state": "Madhya Pradesh",
   "city": "Indore",
   "district": "Indore",
   "zip_code": 453551,
   "about": "Pending"
 },
 {
   "name": "Alwasa",
   "state": "Madhya Pradesh",
   "city": "Indore",
   "district": "Indore",
   "zip_code": 453111,
   "about": "Pending"
 },
 {
   "name": "Ambachandan",
   "state": "Madhya Pradesh",
   "city": "Indore",
   "district": "Indore",
   "zip_code": 453441,
   "about": "Pending"
 },
 {
   "name": "Army Head quarter",
   "state": "Madhya Pradesh",
   "city": "Indore",
   "district": "Indore",
   "zip_code": 452006,
   "about": "Pending"
 },
 {
   "name": "Attahada",
   "state": "Madhya Pradesh",
   "city": "Indore",
   "district": "Indore",
   "zip_code": 453115,
   "about": "Pending"
 },
 {
   "name": "Atwada",
   "state": "Madhya Pradesh",
   "city": "Indore",
   "district": "Indore",
   "zip_code": 453001,
   "about": "Pending"
 },
 {
   "name": "Aurangpura",
   "state": "Madhya Pradesh",
   "city": "Indore",
   "district": "Indore",
   "zip_code": 453001,
   "about": "Pending"
 },
 {
   "name": "Bachhoda",
   "state": "Madhya Pradesh",
   "city": "Indore",
   "district": "Indore",
   "zip_code": 453220,
   "about": "Pending"
 },
 {
   "name": "Badgonda",
   "state": "Madhya Pradesh",
   "city": "Indore",
   "district": "Indore",
   "zip_code": 453441,
   "about": "Pending"
 },
 {
   "name": "Badodia Khan",
   "state": "Madhya Pradesh",
   "city": "Indore",
   "district": "Indore",
   "zip_code": 453551,
   "about": "Pending"
 },
 {
   "name": "Bai",
   "state": "Madhya Pradesh",
   "city": "Indore",
   "district": "Indore",
   "zip_code": 453441,
   "about": "Pending"
 },
 {
   "name": "Baloda Tkun",
   "state": "Madhya Pradesh",
   "city": "Indore",
   "district": "Indore",
   "zip_code": 453551,
   "about": "Pending"
 },
 {
   "name": "Banadia",
   "state": "Madhya Pradesh",
   "city": "Indore",
   "district": "Indore",
   "zip_code": 453115,
   "about": "Pending"
 },
 {
   "name": "Baoliakhurd",
   "state": "Madhya Pradesh",
   "city": "Indore",
   "district": "Indore",
   "zip_code": 452016,
   "about": "Pending"
 },
 {
   "name": "Barlai Jagir",
   "state": "Madhya Pradesh",
   "city": "Indore",
   "district": "Indore",
   "zip_code": 453771,
   "about": "Pending"
 },
 {
   "name": "Betma",
   "state": "Madhya Pradesh",
   "city": "Indore",
   "district": "Indore",
   "zip_code": 453001,
   "about": "Pending"
 },
 {
   "name": "Bhagana",
   "state": "Madhya Pradesh",
   "city": "Indore",
   "district": "Indore",
   "zip_code": 453111,
   "about": "Pending"
 },
 {
   "name": "Bhagora",
   "state": "Madhya Pradesh",
   "city": "Indore",
   "district": "Indore",
   "zip_code": 453441,
   "about": "Pending"
 },
 {
   "name": "Bhanwrasala",
   "state": "Madhya Pradesh",
   "city": "Indore",
   "district": "Indore",
   "zip_code": 453111,
   "about": "Pending"
 },
 {
   "name": "Bhatkhedi",
   "state": "Madhya Pradesh",
   "city": "Indore",
   "district": "Indore",
   "zip_code": 453441,
   "about": "Pending"
 },
 {
   "name": "Bhilbadoli",
   "state": "Madhya Pradesh",
   "city": "Indore",
   "district": "Indore",
   "zip_code": 453220,
   "about": "Pending"
 },
 {
   "name": "Bicholi Mardana",
   "state": "Madhya Pradesh",
   "city": "Indore",
   "district": "Indore",
   "zip_code": 452016,
   "about": "Pending"
 },
 {
   "name": "Bijasan Road",
   "state": "Madhya Pradesh",
   "city": "Indore",
   "district": "Indore",
   "zip_code": 452005,
   "about": "Pending"
 },
 {
   "name": "Binawda",
   "state": "Madhya Pradesh",
   "city": "Indore",
   "district": "Indore",
   "zip_code": 453001,
   "about": "Pending"
 },
 {
   "name": "Burankhedi",
   "state": "Madhya Pradesh",
   "city": "Indore",
   "district": "Indore",
   "zip_code": 452016,
   "about": "Pending"
 },
 {
   "name": "Chadoda",
   "state": "Madhya Pradesh",
   "city": "Indore",
   "district": "Indore",
   "zip_code": 453220,
   "about": "Pending"
 },
 {
   "name": "Chambal",
   "state": "Madhya Pradesh",
   "city": "Indore",
   "district": "Indore",
   "zip_code": 453220,
   "about": "Pending"
 },
 {
   "name": "Chittoda",
   "state": "Madhya Pradesh",
   "city": "Indore",
   "district": "Indore",
   "zip_code": 453551,
   "about": "Pending"
 },
 {
   "name": "Choral",
   "state": "Madhya Pradesh",
   "city": "Indore",
   "district": "Indore",
   "zip_code": 453441,
   "about": "Pending"
 },
 {
   "name": "Chordia",
   "state": "Madhya Pradesh",
   "city": "Indore",
   "district": "Indore",
   "zip_code": 453441,
   "about": "Pending"
 },
 {
   "name": "Dakachia",
   "state": "Madhya Pradesh",
   "city": "Indore",
   "district": "Indore",
   "zip_code": 453771,
   "about": "Pending"
 },
 {
   "name": "Datoda",
   "state": "Madhya Pradesh",
   "city": "Indore",
   "district": "Indore",
   "zip_code": 452020,
   "about": "Pending"
 },
 {
   "name": "Depalpur",
   "state": "Madhya Pradesh",
   "city": "Indore",
   "district": "Indore",
   "zip_code": 453115,
   "about": "Pending"
 },
 {
   "name": "Dhannad",
   "state": "Madhya Pradesh",
   "city": "Indore",
   "district": "Indore",
   "zip_code": 453001,
   "about": "Pending"
 },
 {
   "name": "Dharnaka",
   "state": "Madhya Pradesh",
   "city": "Indore",
   "district": "Indore",
   "zip_code": 453441,
   "about": "Pending"
 },
 {
   "name": "Dudhia",
   "state": "Madhya Pradesh",
   "city": "Indore",
   "district": "Indore",
   "zip_code": 452016,
   "about": "Pending"
 },
 {
   "name": "Farkodha",
   "state": "Madhya Pradesh",
   "city": "Indore",
   "district": "Indore",
   "zip_code": 453220,
   "about": "Pending"
 },
 {
   "name": "Fc Ganj",
   "state": "Madhya Pradesh",
   "city": "Indore",
   "district": "Indore",
   "zip_code": 453236,
   "about": "Pending"
 },
 {
   "name": "Gandhinagar",
   "state": "Madhya Pradesh",
   "city": "Indore",
   "district": "Indore",
   "zip_code": 453112,
   "about": "Pending"
 },
 {
   "name": "Gautampura",
   "state": "Madhya Pradesh",
   "city": "Indore",
   "district": "Indore",
   "zip_code": 453220,
   "about": "Pending"
 },
 {
   "name": "Gawlipalasia",
   "state": "Madhya Pradesh",
   "city": "Indore",
   "district": "Indore",
   "zip_code": 453441,
   "about": "Pending"
 },
 {
   "name": "Girota",
   "state": "Madhya Pradesh",
   "city": "Indore",
   "district": "Indore",
   "zip_code": 453220,
   "about": "Pending"
 },
 {
   "name": "Gokulpur",
   "state": "Madhya Pradesh",
   "city": "Indore",
   "district": "Indore",
   "zip_code": 453115,
   "about": "Pending"
 },
 {
   "name": "Gujarkheda",
   "state": "Madhya Pradesh",
   "city": "Indore",
   "district": "Indore",
   "zip_code": 453441,
   "about": "Pending"
 },
 {
   "name": "Guran",
   "state": "Madhya Pradesh",
   "city": "Indore",
   "district": "Indore",
   "zip_code": 453551,
   "about": "Pending"
 },
 {
   "name": "Gurunanak Chauk",
   "state": "Madhya Pradesh",
   "city": "Indore",
   "district": "Indore",
   "zip_code": 452007,
   "about": "Pending"
 },
 {
   "name": "Harsola",
   "state": "Madhya Pradesh",
   "city": "Indore",
   "district": "Indore",
   "zip_code": 453441,
   "about": "Pending"
 },
 {
   "name": "Hasalpur",
   "state": "Madhya Pradesh",
   "city": "Indore",
   "district": "Indore",
   "zip_code": 453661,
   "about": "Pending"
 },
 {
   "name": "Hatod",
   "state": "Madhya Pradesh",
   "city": "Indore",
   "district": "Indore",
   "zip_code": 453111,
   "about": "Pending"
 },
 {
   "name": "Indore Cgo complex",
   "state": "Madhya Pradesh",
   "city": "Indore",
   "district": "Indore",
   "zip_code": 452001,
   "about": "Pending"
 },
 {
   "name": "Indore Cat",
   "state": "Madhya Pradesh",
   "city": "Indore",
   "district": "Indore",
   "zip_code": 452013,
   "about": "Pending"
 },
 {
   "name": "Indore City-2",
   "state": "Madhya Pradesh",
   "city": "Indore",
   "district": "Indore",
   "zip_code": 452002,
   "about": "Pending"
 },
 {
   "name": "Indore Cloth market",
   "state": "Madhya Pradesh",
   "city": "Indore",
   "district": "Indore",
   "zip_code": 452002,
   "about": "Pending"
 },
 {
   "name": "Indore Collectorate",
   "state": "Madhya Pradesh",
   "city": "Indore",
   "district": "Indore",
   "zip_code": 452007,
   "about": "Pending"
 },
 {
   "name": "Indore Courts",
   "state": "Madhya Pradesh",
   "city": "Indore",
   "district": "Indore",
   "zip_code": 452007,
   "about": "Pending"
 },
 {
   "name": "Indore Ddu nagar",
   "state": "Madhya Pradesh",
   "city": "Indore",
   "district": "Indore",
   "zip_code": 452010,
   "about": "Pending"
 },
 {
   "name": "Indore Govt. college",
   "state": "Madhya Pradesh",
   "city": "Indore",
   "district": "Indore",
   "zip_code": 452001,
   "about": "Pending"
 },
 {
   "name": "Indore Industrial area",
   "state": "Madhya Pradesh",
   "city": "Indore",
   "district": "Indore",
   "zip_code": 452015,
   "about": "Pending"
 },
 {
   "name": "Indore Javeri bagh",
   "state": "Madhya Pradesh",
   "city": "Indore",
   "district": "Indore",
   "zip_code": 452001,
   "about": "Pending"
 },
 {
   "name": "Indore Kanadia road",
   "state": "Madhya Pradesh",
   "city": "Indore",
   "district": "Indore",
   "zip_code": 452016,
   "about": "Pending"
 },
 {
   "name": "Indore Kumar khadi",
   "state": "Madhya Pradesh",
   "city": "Indore",
   "district": "Indore",
   "zip_code": 452003,
   "about": "Pending"
 },
 {
   "name": "Indore Malwa mill",
   "state": "Madhya Pradesh",
   "city": "Indore",
   "district": "Indore",
   "zip_code": 452003,
   "about": "Pending"
 },
 {
   "name": "Indore Manorama ganj",
   "state": "Madhya Pradesh",
   "city": "Indore",
   "district": "Indore",
   "zip_code": 452001,
   "about": "Pending"
 },
 {
   "name": "Indore Nagar",
   "state": "Madhya Pradesh",
   "city": "Indore",
   "district": "Indore",
   "zip_code": 452007,
   "about": "Pending"
 },
 {
   "name": "Indore Pardesipura",
   "state": "Madhya Pradesh",
   "city": "Indore",
   "district": "Indore",
   "zip_code": 452003,
   "about": "Pending"
 },
 {
   "name": "Indore R.s.s.nagar",
   "state": "Madhya Pradesh",
   "city": "Indore",
   "district": "Indore",
   "zip_code": 452008,
   "about": "Pending"
 },
 {
   "name": "Indore Raj mohalla",
   "state": "Madhya Pradesh",
   "city": "Indore",
   "district": "Indore",
   "zip_code": 452002,
   "about": "Pending"
 },
 {
   "name": "Indore Ram bagh",
   "state": "Madhya Pradesh",
   "city": "Indore",
   "district": "Indore",
   "zip_code": 452007,
   "about": "Pending"
 },
 {
   "name": "Indore Siyaganj",
   "state": "Madhya Pradesh",
   "city": "Indore",
   "district": "Indore",
   "zip_code": 452007,
   "about": "Pending"
 },
 {
   "name": "Indore Tillaknagar",
   "state": "Madhya Pradesh",
   "city": "Indore",
   "district": "Indore",
   "zip_code": 452018,
   "about": "Pending"
 },
 {
   "name": "Indore Tukoganj",
   "state": "Madhya Pradesh",
   "city": "Indore",
   "district": "Indore",
   "zip_code": 452001,
   "about": "Pending"
 },
 {
   "name": "Indore Uchchanyayalay",
   "state": "Madhya Pradesh",
   "city": "Indore",
   "district": "Indore",
   "zip_code": 452001,
   "about": "Pending"
 },
 {
   "name": "Indore.",
   "state": "Madhya Pradesh",
   "city": "Indore",
   "district": "Indore",
   "zip_code": 452001,
   "about": "Pending"
 },
 {
   "name": "Industrial Estate",
   "state": "Madhya Pradesh",
   "city": "Indore",
   "district": "Indore",
   "zip_code": 452015,
   "about": "Pending"
 },
 {
   "name": "Jalodiyagyan",
   "state": "Madhya Pradesh",
   "city": "Indore",
   "district": "Indore",
   "zip_code": 453220,
   "about": "Pending"
 },
 {
   "name": "Jamburdi Sarwar",
   "state": "Madhya Pradesh",
   "city": "Indore",
   "district": "Indore",
   "zip_code": 453111,
   "about": "Pending"
 },
 {
   "name": "Jamburdihapsi",
   "state": "Madhya Pradesh",
   "city": "Indore",
   "district": "Indore",
   "zip_code": 453112,
   "about": "Pending"
 },
 {
   "name": "Jamli",
   "state": "Madhya Pradesh",
   "city": "Indore",
   "district": "Indore",
   "zip_code": 453441,
   "about": "Pending"
 },
 {
   "name": "Jhalaria",
   "state": "Madhya Pradesh",
   "city": "Indore",
   "district": "Indore",
   "zip_code": 452016,
   "about": "Pending"
 },
 {
   "name": "Jindakheda",
   "state": "Madhya Pradesh",
   "city": "Indore",
   "district": "Indore",
   "zip_code": 453551,
   "about": "Pending"
 },
 {
   "name": "Joshiguradia",
   "state": "Madhya Pradesh",
   "city": "Indore",
   "district": "Indore",
   "zip_code": 452020,
   "about": "Pending"
 },
 {
   "name": "Juni Indore",
   "state": "Madhya Pradesh",
   "city": "Indore",
   "district": "Indore",
   "zip_code": 452001,
   "about": "Pending"
 },
 {
   "name": "Kachalia",
   "state": "Madhya Pradesh",
   "city": "Indore",
   "district": "Indore",
   "zip_code": 453551,
   "about": "Pending"
 },
 {
   "name": "Kadwali Bujurg",
   "state": "Madhya Pradesh",
   "city": "Indore",
   "district": "Indore",
   "zip_code": 453771,
   "about": "Pending"
 },
 {
   "name": "Kalaria",
   "state": "Madhya Pradesh",
   "city": "Indore",
   "district": "Indore",
   "zip_code": 453001,
   "about": "Pending"
 },
 {
   "name": "Kallibillod",
   "state": "Madhya Pradesh",
   "city": "Indore",
   "district": "Indore",
   "zip_code": 453001,
   "about": "Pending"
 },
 {
   "name": "Kalmer",
   "state": "Madhya Pradesh",
   "city": "Indore",
   "district": "Indore",
   "zip_code": 453111,
   "about": "Pending"
 },
 {
   "name": "Kamadpur",
   "state": "Madhya Pradesh",
   "city": "Indore",
   "district": "Indore",
   "zip_code": 453661,
   "about": "Pending"
 },
 {
   "name": "Kampel",
   "state": "Madhya Pradesh",
   "city": "Indore",
   "district": "Indore",
   "zip_code": 452020,
   "about": "Pending"
 },
 {
   "name": "Kanadia",
   "state": "Madhya Pradesh",
   "city": "Indore",
   "district": "Indore",
   "zip_code": 452016,
   "about": "Pending"
 },
 {
   "name": "Kanadia Road",
   "state": "Madhya Pradesh",
   "city": "Indore",
   "district": "Indore",
   "zip_code": 452016,
   "about": "Pending"
 },
 {
   "name": "Kankariapal",
   "state": "Madhya Pradesh",
   "city": "Indore",
   "district": "Indore",
   "zip_code": 453551,
   "about": "Pending"
 },
 {
   "name": "Kanwasa",
   "state": "Madhya Pradesh",
   "city": "Indore",
   "district": "Indore",
   "zip_code": 453220,
   "about": "Pending"
 },
 {
   "name": "Karadia",
   "state": "Madhya Pradesh",
   "city": "Indore",
   "district": "Indore",
   "zip_code": 453001,
   "about": "Pending"
 },
 {
   "name": "Kasturbagram",
   "state": "Madhya Pradesh",
   "city": "Indore",
   "district": "Indore",
   "zip_code": 452020,
   "about": "Pending"
 },
 {
   "name": "Kelod",
   "state": "Madhya Pradesh",
   "city": "Indore",
   "district": "Indore",
   "zip_code": 453441,
   "about": "Pending"
 },
 {
   "name": "Kelodkartal",
   "state": "Madhya Pradesh",
   "city": "Indore",
   "district": "Indore",
   "zip_code": 452020,
   "about": "Pending"
 },
 {
   "name": "Khatiwala Tank",
   "state": "Madhya Pradesh",
   "city": "Indore",
   "district": "Indore",
   "zip_code": 452014,
   "about": "Pending"
 },
 {
   "name": "Khedi Sihod",
   "state": "Madhya Pradesh",
   "city": "Indore",
   "district": "Indore",
   "zip_code": 453661,
   "about": "Pending"
 },
 {
   "name": "Khudel",
   "state": "Madhya Pradesh",
   "city": "Indore",
   "district": "Indore",
   "zip_code": 452016,
   "about": "Pending"
 },
 {
   "name": "Khurdi",
   "state": "Madhya Pradesh",
   "city": "Indore",
   "district": "Indore",
   "zip_code": 453661,
   "about": "Pending"
 },
 {
   "name": "Kishanganj",
   "state": "Madhya Pradesh",
   "city": "Indore",
   "district": "Indore",
   "zip_code": 453441,
   "about": "Pending"
 },
 {
   "name": "Kodria",
   "state": "Madhya Pradesh",
   "city": "Indore",
   "district": "Indore",
   "zip_code": 453441,
   "about": "Pending"
 },
 {
   "name": "Kudana",
   "state": "Madhya Pradesh",
   "city": "Indore",
   "district": "Indore",
   "zip_code": 453551,
   "about": "Pending"
 },
 {
   "name": "Lasudia",
   "state": "Madhya Pradesh",
   "city": "Indore",
   "district": "Indore",
   "zip_code": 453771,
   "about": "Pending"
 },
 {
   "name": "Limbiodapar",
   "state": "Madhya Pradesh",
   "city": "Indore",
   "district": "Indore",
   "zip_code": 453115,
   "about": "Pending"
 },
 {
   "name": "Lokmanya Nagar indore",
   "state": "Madhya Pradesh",
   "city": "Indore",
   "district": "Indore",
   "zip_code": 452009,
   "about": "Pending"
 },
 {
   "name": "Machal",
   "state": "Madhya Pradesh",
   "city": "Indore",
   "district": "Indore",
   "zip_code": 453001,
   "about": "Pending"
 },
 {
   "name": "Machla",
   "state": "Madhya Pradesh",
   "city": "Indore",
   "district": "Indore",
   "zip_code": 452020,
   "about": "Pending"
 },
 {
   "name": "Maithwada",
   "state": "Madhya Pradesh",
   "city": "Indore",
   "district": "Indore",
   "zip_code": 453001,
   "about": "Pending"
 },
 {
   "name": "Manglia",
   "state": "Madhya Pradesh",
   "city": "Indore",
   "district": "Indore",
   "zip_code": 453771,
   "about": "Pending"
 },
 {
   "name": "Manpur",
   "state": "Madhya Pradesh",
   "city": "Indore",
   "district": "Indore",
   "zip_code": 453661,
   "about": "Pending"
 },
 {
   "name": "Men",
   "state": "Madhya Pradesh",
   "city": "Indore",
   "district": "Indore",
   "zip_code": 453441,
   "about": "Pending"
 },
 {
   "name": "Mendakwasa",
   "state": "Madhya Pradesh",
   "city": "Indore",
   "district": "Indore",
   "zip_code": 453220,
   "about": "Pending"
 },
 {
   "name": "Mhow",
   "state": "Madhya Pradesh",
   "city": "Indore",
   "district": "Indore",
   "zip_code": 453441,
   "about": "Pending"
 },
 {
   "name": "Mhow Barracks",
   "state": "Madhya Pradesh",
   "city": "Indore",
   "district": "Indore",
   "zip_code": 452001,
   "about": "Pending"
 },
 {
   "name": "Mhow Cantt",
   "state": "Madhya Pradesh",
   "city": "Indore",
   "district": "Indore",
   "zip_code": 453441,
   "about": "Pending"
 },
 {
   "name": "Mhow College of combat",
   "state": "Madhya Pradesh",
   "city": "Indore",
   "district": "Indore",
   "zip_code": 453441,
   "about": "Pending"
 },
 {
   "name": "Mhow Gaon",
   "state": "Madhya Pradesh",
   "city": "Indore",
   "district": "Indore",
   "zip_code": 453441,
   "about": "Pending"
 },
 {
   "name": "Mhow Infantry school",
   "state": "Madhya Pradesh",
   "city": "Indore",
   "district": "Indore",
   "zip_code": 453441,
   "about": "Pending"
 },
 {
   "name": "Mhow Railway stattion",
   "state": "Madhya Pradesh",
   "city": "Indore",
   "district": "Indore",
   "zip_code": 453441,
   "about": "Pending"
 },
 {
   "name": "Murkheda",
   "state": "Madhya Pradesh",
   "city": "Indore",
   "district": "Indore",
   "zip_code": 453115,
   "about": "Pending"
 },
 {
   "name": "Nanda Nagar",
   "state": "Madhya Pradesh",
   "city": "Indore",
   "district": "Indore",
   "zip_code": 452011,
   "about": "Pending"
 },
 {
   "name": "Neori",
   "state": "Madhya Pradesh",
   "city": "Indore",
   "district": "Indore",
   "zip_code": 453115,
   "about": "Pending"
 },
 {
   "name": "Pagnispaga Indore",
   "state": "Madhya Pradesh",
   "city": "Indore",
   "district": "Indore",
   "zip_code": 452007,
   "about": "Pending"
 },
 {
   "name": "Palakhedi",
   "state": "Madhya Pradesh",
   "city": "Indore",
   "district": "Indore",
   "zip_code": 453112,
   "about": "Pending"
 },
 {
   "name": "Palda",
   "state": "Madhya Pradesh",
   "city": "Indore",
   "district": "Indore",
   "zip_code": 452020,
   "about": "Pending"
 },
 {
   "name": "Paliya",
   "state": "Madhya Pradesh",
   "city": "Indore",
   "district": "Indore",
   "zip_code": 453111,
   "about": "Pending"
 },
 {
   "name": "Panod",
   "state": "Madhya Pradesh",
   "city": "Indore",
   "district": "Indore",
   "zip_code": 453771,
   "about": "Pending"
 },
 {
   "name": "Paphund",
   "state": "Madhya Pradesh",
   "city": "Indore",
   "district": "Indore",
   "zip_code": 453661,
   "about": "Pending"
 },
 {
   "name": "Pedmi",
   "state": "Madhya Pradesh",
   "city": "Indore",
   "district": "Indore",
   "zip_code": 452020,
   "about": "Pending"
 },
 {
   "name": "Pigdamber",
   "state": "Madhya Pradesh",
   "city": "Indore",
   "district": "Indore",
   "zip_code": 453331,
   "about": "Pending"
 },
 {
   "name": "Pipalda",
   "state": "Madhya Pradesh",
   "city": "Indore",
   "district": "Indore",
   "zip_code": 452020,
   "about": "Pending"
 },
 {
   "name": "Piwdai",
   "state": "Madhya Pradesh",
   "city": "Indore",
   "district": "Indore",
   "zip_code": 452020,
   "about": "Pending"
 },
 {
   "name": "Radio Colony indore",
   "state": "Madhya Pradesh",
   "city": "Indore",
   "district": "Indore",
   "zip_code": 452001,
   "about": "Pending"
 },
 {
   "name": "Rajendra Nagar",
   "state": "Madhya Pradesh",
   "city": "Indore",
   "district": "Indore",
   "zip_code": 452012,
   "about": "Pending"
 },
 {
   "name": "Rajoda",
   "state": "Madhya Pradesh",
   "city": "Indore",
   "district": "Indore",
   "zip_code": 453551,
   "about": "Pending"
 },
 {
   "name": "Rangwasa",
   "state": "Madhya Pradesh",
   "city": "Indore",
   "district": "Indore",
   "zip_code": 453331,
   "about": "Pending"
 },
 {
   "name": "Rao",
   "state": "Madhya Pradesh",
   "city": "Indore",
   "district": "Indore",
   "zip_code": 453331,
   "about": "Pending"
 },
 {
   "name": "Rasalpura",
   "state": "Madhya Pradesh",
   "city": "Indore",
   "district": "Indore",
   "zip_code": 453446,
   "about": "Pending"
 },
 {
   "name": "Rolai",
   "state": "Madhya Pradesh",
   "city": "Indore",
   "district": "Indore",
   "zip_code": 453001,
   "about": "Pending"
 },
 {
   "name": "Sadar Bazar indore",
   "state": "Madhya Pradesh",
   "city": "Indore",
   "district": "Indore",
   "zip_code": 452006,
   "about": "Pending"
 },
 {
   "name": "Sagdod",
   "state": "Madhya Pradesh",
   "city": "Indore",
   "district": "Indore",
   "zip_code": 453001,
   "about": "Pending"
 },
 {
   "name": "Sanawadia",
   "state": "Madhya Pradesh",
   "city": "Indore",
   "district": "Indore",
   "zip_code": 452016,
   "about": "Pending"
 },
 {
   "name": "Sanwer",
   "state": "Madhya Pradesh",
   "city": "Indore",
   "district": "Indore",
   "zip_code": 453551,
   "about": "Pending"
 },
 {
   "name": "Sanwer Link road indore",
   "state": "Madhya Pradesh",
   "city": "Indore",
   "district": "Indore",
   "zip_code": 452003,
   "about": "Pending"
 },
 {
   "name": "Semlia Chau",
   "state": "Madhya Pradesh",
   "city": "Indore",
   "district": "Indore",
   "zip_code": 452016,
   "about": "Pending"
 },
 {
   "name": "Simrol",
   "state": "Madhya Pradesh",
   "city": "Indore",
   "district": "Indore",
   "zip_code": 452020,
   "about": "Pending"
 },
 {
   "name": "Sivani",
   "state": "Madhya Pradesh",
   "city": "Indore",
   "district": "Indore",
   "zip_code": 452016,
   "about": "Pending"
 },
 {
   "name": "Solsinda",
   "state": "Madhya Pradesh",
   "city": "Indore",
   "district": "Indore",
   "zip_code": 453551,
   "about": "Pending"
 },
 {
   "name": "Sonway Bhensolay audygik kshet",
   "state": "Madhya Pradesh",
   "city": "Indore",
   "district": "Indore",
   "zip_code": 453332,
   "about": "Pending"
 },
 {
   "name": "Sudama Nagar",
   "state": "Madhya Pradesh",
   "city": "Indore",
   "district": "Indore",
   "zip_code": 452009,
   "about": "Pending"
 },
 {
   "name": "Sumtha",
   "state": "Madhya Pradesh",
   "city": "Indore",
   "district": "Indore",
   "zip_code": 453115,
   "about": "Pending"
 },
 {
   "name": "Tihi",
   "state": "Madhya Pradesh",
   "city": "Indore",
   "district": "Indore",
   "zip_code": 453331,
   "about": "Pending"
 },
 {
   "name": "Tillorbujurg",
   "state": "Madhya Pradesh",
   "city": "Indore",
   "district": "Indore",
   "zip_code": 452020,
   "about": "Pending"
 },
 {
   "name": "Tillorkhurd",
   "state": "Madhya Pradesh",
   "city": "Indore",
   "district": "Indore",
   "zip_code": 452020,
   "about": "Pending"
 },
 {
   "name": "Todi",
   "state": "Madhya Pradesh",
   "city": "Indore",
   "district": "Indore",
   "zip_code": 453771,
   "about": "Pending"
 },
 {
   "name": "Umaria",
   "state": "Madhya Pradesh",
   "city": "Indore",
   "district": "Indore",
   "zip_code": 453331,
   "about": "Pending"
 },
 {
   "name": "Vallabhnagar",
   "state": "Madhya Pradesh",
   "city": "Indore",
   "district": "Indore",
   "zip_code": 452003,
   "about": "Pending"
 },
 {
   "name": "Vijay Nagar",
   "state": "Madhya Pradesh",
   "city": "Indore",
   "district": "Indore",
   "zip_code": 452010,
   "about": "Pending"
 },
 {
   "name": "Yashwant Nagar",
   "state": "Madhya Pradesh",
   "city": "Indore",
   "district": "Indore",
   "zip_code": 453661,
   "about": "Pending"
 }
]